[
    {
        "Altitude(m)": 624792.7402067422,
        "Argument of Periapsis(deg)": 0.0,
        "Eccentricity": 0.0,
        "Inclination(deg)": 60.0,
        "Latitude(deg)": -59.14699096692351,
        "Longitude(deg)": 119.02633109865823,
        "Mean Anomaly(deg)": -98.18179999999994,
        "RAAN(deg)": 325.0,
        "Satellite Name": "Test1 1446",
        "Satellite Number": 1446,
        "Semi-Major Axis(m)": 6980739.136638005,
        "Time(s)": 0
    },
    {
        "Altitude(m)": 624842.13261063,
        "Argument of Periapsis(deg)": 0.00010418945913296404,
        "Eccentricity": 0.0,
        "Inclination(deg)": 60.0,
        "Latitude(deg)": -59.28907542459858,
        "Longitude(deg)": 120.15583157903204,
        "Mean Anomaly(deg)": -97.56169385453809,
        "RAAN(deg)": 324.99957995086027,
        "Satellite Name": "Test1 1446",
        "Satellite Number": 1446,
        "Semi-Major Axis(m)": 6980739.136638005,
        "Time(s)": 10
    },
    {
        "Altitude(m)": 624887.7007639331,
        "Argument of Periapsis(deg)": 0.0002083789182659281,
        "Eccentricity": 0.0,
        "Inclination(deg)": 60.0,
        "Latitude(deg)": -59.420549076057966,
        "Longitude(deg)": 121.29475261194696,
        "Mean Anomaly(deg)": -96.94158770907633,
        "RAAN(deg)": 324.9991599017205,
        "Satellite Name": "Test1 1446",
        "Satellite Number": 1446,
        "Semi-Major Axis(m)": 6980739.136638005,
        "Time(s)": 20
    },
    {
        "Altitude(m)": 624929.4267031404,
        "Argument of Periapsis(deg)": 0.00031256837739889213,
        "Eccentricity": 0.0,
        "Inclination(deg)": 60.0,
        "Latitude(deg)": -59.54127462000978,
        "Longitude(deg)": 122.4424718998686,
        "Mean Anomaly(deg)": -96.32148156361443,
        "RAAN(deg)": 324.9987398525808,
        "Satellite Name": "Test1 1446",
        "Satellite Number": 1446,
        "Semi-Major Axis(m)": 6980739.136638005,
        "Time(s)": 30
    },
    {
        "Altitude(m)": 624967.2939759154,
        "Argument of Periapsis(deg)": 0.0004167578365318562,
        "Eccentricity": 0.0,
        "Inclination(deg)": 60.0,
        "Latitude(deg)": -59.65112388845026,
        "Longitude(deg)": 123.5983321606997,
        "Mean Anomaly(deg)": -95.70137541815268,
        "RAAN(deg)": 324.99831980344106,
        "Satellite Name": "Test1 1446",
        "Satellite Number": 1446,
        "Semi-Major Axis(m)": 6980739.136638005,
        "Time(s)": 40
    },
    {
        "Altitude(m)": 625001.2876480139,
        "Argument of Periapsis(deg)": 0.0005209472956648203,
        "Eccentricity": 0.0,
        "Inclination(deg)": 60.0,
        "Latitude(deg)": -59.74997848574905,
        "Longitude(deg)": 124.76164196444977,
        "Mean Anomaly(deg)": -95.08126927269083,
        "RAAN(deg)": 324.9978997543013,
        "Satellite Name": "Test1 1446",
        "Satellite Number": 1446,
        "Semi-Major Axis(m)": 6980739.136638005,
        "Time(s)": 50
    },
    {
        "Altitude(m)": 625031.3943095806,
        "Argument of Periapsis(deg)": 0.0006251367547977843,
        "Eccentricity": 0.0,
        "Inclination(deg)": 60.0,
        "Latitude(deg)": -59.837730394662515,
        "Longitude(deg)": 125.93167840746447,
        "Mean Anomaly(deg)": -94.46116312722907,
        "RAAN(deg)": 324.9974797051615,
        "Satellite Name": "Test1 1446",
        "Satellite Number": 1446,
        "Semi-Major Axis(m)": 6980739.136638005,
        "Time(s)": 60
    },
    {
        "Altitude(m)": 625057.6020808151,
        "Argument of Periapsis(deg)": 0.0007293262139307483,
        "Eccentricity": 0.0,
        "Inclination(deg)": 60.0,
        "Latitude(deg)": -59.914282542438976,
        "Longitude(deg)": 127.10769010111608,
        "Mean Anomaly(deg)": -93.84105698176717,
        "RAAN(deg)": 324.9970596560218,
        "Satellite Name": "Test1 1446",
        "Satellite Number": 1446,
        "Semi-Major Axis(m)": 6980739.136638005,
        "Time(s)": 70
    },
    {
        "Altitude(m)": 625079.9006169501,
        "Argument of Periapsis(deg)": 0.0008335156730637124,
        "Eccentricity": 0.0,
        "Inclination(deg)": 60.0,
        "Latitude(deg)": -59.97954932038417,
        "Longitude(deg)": 128.2888989461766,
        "Mean Anomaly(deg)": -93.22095083630542,
        "RAAN(deg)": 324.996639606882,
        "Satellite Name": "Test1 1446",
        "Satellite Number": 1446,
        "Semi-Major Axis(m)": 6980739.136638005,
        "Time(s)": 80
    },
    {
        "Altitude(m)": 625098.2811126213,
        "Argument of Periapsis(deg)": 0.0009377051321966765,
        "Eccentricity": 0.0,
        "Inclination(deg)": 60.0,
        "Latitude(deg)": -60.03345705061288,
        "Longitude(deg)": 129.47450369722114,
        "Mean Anomaly(deg)": -92.60084469084357,
        "RAAN(deg)": 324.9962195577423,
        "Satellite Name": "Test1 1446",
        "Satellite Number": 1446,
        "Semi-Major Axis(m)": 6980739.136638005,
        "Time(s)": 90
    },
    {
        "Altitude(m)": 625112.7363055767,
        "Argument of Periapsis(deg)": 0.0010418945913296407,
        "Eccentricity": 0.0,
        "Inclination(deg)": 60.0,
        "Latitude(deg)": -60.07594439419322,
        "Longitude(deg)": 130.66368377748788,
        "Mean Anomaly(deg)": -91.98073854538171,
        "RAAN(deg)": 324.99579950860254,
        "Satellite Name": "Test1 1446",
        "Satellite Number": 1446,
        "Semi-Major Axis(m)": 6980739.136638005,
        "Time(s)": 100
    },
    {
        "Altitude(m)": 625123.2604797274,
        "Argument of Periapsis(deg)": 0.0011460840504626045,
        "Eccentricity": 0.0,
        "Inclination(deg)": 60.0,
        "Latitude(deg)": -60.10696269550006,
        "Longitude(deg)": 131.85560179969642,
        "Mean Anomaly(deg)": -91.36063239991991,
        "RAAN(deg)": 324.9953794594628,
        "Satellite Name": "Test1 1446",
        "Satellite Number": 1446,
        "Semi-Major Axis(m)": 6980739.136638005,
        "Time(s)": 110
    },
    {
        "Altitude(m)": 625129.8494675561,
        "Argument of Periapsis(deg)": 0.0012502735095955685,
        "Eccentricity": 0.0,
        "Inclination(deg)": 60.0,
        "Latitude(deg)": -60.126476258323976,
        "Longitude(deg)": 133.049407782493,
        "Mean Anomaly(deg)": -90.74052625445806,
        "RAAN(deg)": 324.9949594103231,
        "Satellite Name": "Test1 1446",
        "Satellite Number": 1446,
        "Semi-Major Axis(m)": 6980739.136638005,
        "Time(s)": 120
    },
    {
        "Altitude(m)": 625132.5006518821,
        "Argument of Periapsis(deg)": 0.0013544629687285324,
        "Eccentricity": 0.0,
        "Inclination(deg)": 60.0,
        "Latitude(deg)": -60.1344625501075,
        "Longitude(deg)": 134.24424350980954,
        "Mean Anomaly(deg)": -90.12042010899621,
        "RAAN(deg)": 324.99453936118334,
        "Satellite Name": "Test1 1446",
        "Satellite Number": 1446,
        "Semi-Major Axis(m)": 6980739.136638005,
        "Time(s)": 130
    },
    {
        "Altitude(m)": 625131.2129669602,
        "Argument of Periapsis(deg)": 0.0014586524278614966,
        "Eccentricity": 0.0,
        "Inclination(deg)": 60.0,
        "Latitude(deg)": -60.13091233159156,
        "Longitude(deg)": 135.43924547741835,
        "Mean Anomaly(deg)": -89.50031396353435,
        "RAAN(deg)": 324.99411931204355,
        "Satellite Name": "Test1 1446",
        "Satellite Number": 1446,
        "Semi-Major Axis(m)": 6980739.136638005,
        "Time(s)": 140
    },
    {
        "Altitude(m)": 625125.9868989205,
        "Argument of Periapsis(deg)": 0.0015628418869944607,
        "Eccentricity": 0.0,
        "Inclination(deg)": 60.0,
        "Latitude(deg)": -60.11582971013941,
        "Longitude(deg)": 136.63354940744304,
        "Mean Anomaly(deg)": -88.88020781807256,
        "RAAN(deg)": 324.9936992629039,
        "Satellite Name": "Test1 1446",
        "Satellite Number": 1446,
        "Semi-Major Axis(m)": 6980739.136638005,
        "Time(s)": 150
    },
    {
        "Altitude(m)": 625116.8244855932,
        "Argument of Periapsis(deg)": 0.0016670313461274247,
        "Eccentricity": 0.0,
        "Inclination(deg)": 60.0,
        "Latitude(deg)": -60.08923211601826,
        "Longitude(deg)": 137.8262947717987,
        "Mean Anomaly(deg)": -88.2601016726107,
        "RAAN(deg)": 324.9932792137641,
        "Satellite Name": "Test1 1446",
        "Satellite Number": 1446,
        "Semi-Major Axis(m)": 6980739.136638005,
        "Time(s)": 160
    },
    {
        "Altitude(m)": 625103.7293156185,
        "Argument of Periapsis(deg)": 0.0017712208052603888,
        "Eccentricity": 0.0,
        "Inclination(deg)": 60.0,
        "Latitude(deg)": -60.051150201957114,
        "Longitude(deg)": 139.01662776534235,
        "Mean Anomaly(deg)": -87.63999552714884,
        "RAAN(deg)": 324.99285916462435,
        "Satellite Name": "Test1 1446",
        "Satellite Number": 1446,
        "Semi-Major Axis(m)": 6980739.136638005,
        "Time(s)": 170
    },
    {
        "Altitude(m)": 625086.7065269772,
        "Argument of Periapsis(deg)": 0.001875410264393353,
        "Eccentricity": 0.0,
        "Inclination(deg)": 60.0,
        "Latitude(deg)": -60.00162766733178,
        "Longitude(deg)": 140.20370570892536,
        "Mean Anomaly(deg)": -87.019889381687,
        "RAAN(deg)": 324.9924391154846,
        "Satellite Name": "Test1 1446",
        "Satellite Number": 1446,
        "Semi-Major Axis(m)": 6980739.136638005,
        "Time(s)": 180
    },
    {
        "Altitude(m)": 625065.7628048043,
        "Argument of Periapsis(deg)": 0.0019795997235263173,
        "Eccentricity": 0.0,
        "Inclination(deg)": 60.0,
        "Latitude(deg)": -59.94072100932053,
        "Longitude(deg)": 141.38670132570374,
        "Mean Anomaly(deg)": -86.3997832362252,
        "RAAN(deg)": 324.9920190663449,
        "Satellite Name": "Test1 1446",
        "Satellite Number": 1446,
        "Semi-Major Axis(m)": 6980739.136638005,
        "Time(s)": 190
    }
]